HIMAWARI-8              
1 40267U 14060A   24035.51563257 -.00000258  00000+0  00000+0 0  9992
2 40267   0.0260 174.2700 0000573 140.0744 146.1060  1.00270586 34201
